0 TITAN 3C TRANSTAGE DEB
1 01653U 65082Q   13282.30447210  .00000329  00000-0  57105-4 0  8886
2 01653 032.1191 221.3975 0042665 335.3204 024.5400 14.61385310553826
0 TITAN 3C TRANSTAGE DEB
1 01653U 65082Q   13287.15463106  .00000383  00000-0  67670-4 0  8907
2 01653 032.1185 192.7503 0042525 019.2732 340.9511 14.61387845554538
0 TITAN 3C TRANSTAGE DEB
1 01653U 65082Q   13290.09203974  .00000398  00000-0  70705-4 0  8919
2 01653 032.1182 175.4002 0042500 046.0117 314.4020 14.61391089554968
0 TITAN 3C TRANSTAGE DEB
1 01653U 65082Q   13292.82449517  .00000443  00000-0  79431-4 0  8924
2 01653 032.1181 159.2605 0042553 070.7937 289.7306 14.61392957555369
0 TITAN 3C TRANSTAGE DEB
1 01653U 65082Q   13295.01044512  .00000472  00000-0  85128-4 0  8937
2 01653 032.1183 146.3487 0042592 090.5745 269.9780 14.61394883555687
